NORAD_CAT_ID,OBJECT_NAME,OBJECT_TYPE,EPOCH,MEAN_MOTION,ECCENTRICITY,INCLINATION,RA_OF_ASC_NODE,ARG_OF_PERICENTER,MEAN_ANOMALY,BSTAR,MEAN_MOTION_DOT,MEAN_MOTION_DDOT,TLE_LINE0,TLE_LINE1,TLE_LINE2,SEMIMAJOR_AXIS,PERIOD,APOGEE,PERIGEE,DECAYED
53550.0,STARLINK-4518,PAYLOAD,2024-08-09 17:20:43,15.08840872,0.0002983,53.2151,134.2256,73.0555,287.0764,5.2571e-05,5.48e-06,0.0,0 STARLINK-4518,1 53550U 22101Z   24222.72272334  .00000548  00000-0  52571-4 0  9997,2 53550  53.2151 134.2256 0002983  73.0555 287.0764 15.08840872109206,6917.878,95.437,541.806,537.679,0.0
53550.0,STARLINK-4518,PAYLOAD,2024-08-09 22:06:52,15.08829686,0.0001448,53.2157,133.3382,82.032,278.0836,-0.00029237,-4.937e-05,0.0,0 STARLINK-4518,1 53550U 22101Z   24222.92144329 -.00004937  00000-0 -29237-3 0  9991,2 53550  53.2157 133.3382 0001448  82.0320 278.0836 15.08829686109892,6917.912,95.438,540.779,538.775,0.0
53550.0,STARLINK-4518,PAYLOAD,2024-08-10 02:53:01,15.08844306,0.0001276,53.2153,132.4393,75.7729,284.3405,0.00022588,3.309e-05,0.0,0 STARLINK-4518,1 53550U 22101Z   24223.12016162  .00003309  00000-0  22588-3 0  9999,2 53550  53.2153 132.4393 0001276  75.7729 284.3405 15.08844306109923,6917.867,95.437,540.615,538.85,0.0
53550.0,STARLINK-4518,PAYLOAD,2024-08-10 21:57:39,15.08840626,0.0001341,53.2158,128.8717,79.9276,280.1868,0.00014218,1.976e-05,0.0,0 STARLINK-4518,1 53550U 22101Z   24223.91504387  .00001976  00000-0  14218-3 0  9996,2 53550  53.2158 128.8717 0001341  79.9276 280.1868 15.08840626110046,6917.878,95.438,540.671,538.816,0.0
53550.0,STARLINK-4518,PAYLOAD,2024-08-11 02:43:49,15.08848595,0.0001781,53.2158,127.9829,98.5398,261.5796,0.00035082,5.301e-05,0.0,0 STARLINK-4518,1 53550U 22101Z   24224.11376191  .00005301  00000-0  35082-3 0  9997,2 53550  53.2158 127.9829 0001781  98.5398 261.5796 15.08848595109415,6917.854,95.437,540.951,538.487,0.0
53550.0,STARLINK-4518,PAYLOAD,2024-08-11 07:29:58,15.08844406,0.0001622,53.2151,127.0905,91.0171,269.1007,0.00023947,3.526e-05,0.0,0 STARLINK-4518,1 53550U 22101Z   24224.31248100  .00003526  00000-0  23947-3 0  9991,2 53550  53.2151 127.0905 0001622  91.0171 269.1007 15.08844406110109,6917.867,95.437,540.854,538.61,0.0
53550.0,STARLINK-4518,PAYLOAD,2024-08-12 04:09:58,15.0886889,0.0001538,53.2145,123.2247,86.305,273.8118,0.0008707,0.00013607,0.0,0 STARLINK-4518,1 53550U 22101Z   24225.17359387  .00013607  00000-0  87070-3 0  9994,2 53550  53.2145 123.2247 0001538  86.3050 273.8118 15.08868890109575,6917.792,95.436,540.721,538.593,0.0
53550.0,STARLINK-4518,PAYLOAD,2024-08-12 10:31:31,15.08851791,0.0001566,53.2145,122.0351,91.4639,268.6532,0.00029347,4.387e-05,0.0,0 STARLINK-4518,1 53550U 22101Z   24225.43855429  .00004387  00000-0  29347-3 0  9999,2 53550  53.2145 122.0351 0001566  91.4639 268.6532 15.08851791109618,6917.844,95.437,540.793,538.626,0.0
53550.0,STARLINK-4518,PAYLOAD,2024-08-12 16:53:04,15.08838125,0.0001669,53.2139,120.8458,97.38,262.7381,-0.00011581,-2.131e-05,0.0,0 STARLINK-4518,1 53550U 22101Z   24225.70351852 -.00002131  00000-0 -11581-3 0  9998,2 53550  53.2139 120.8458 0001669  97.3800 262.7381 15.08838125109651,6917.886,95.438,540.906,538.597,0.0
53550.0,STARLINK-4518,PAYLOAD,2024-08-12 23:14:37,15.08808311,0.0001502,53.2143,119.656,92.4876,267.6288,-0.0008767,-0.00014201,0.0,0 STARLINK-4518,1 53550U 22101Z   24225.96848645 -.00014201  00000-0 -87670-3 0  9990,2 53550  53.2143 119.6560 0001502  92.4876 267.6288 15.08808311110354,6917.977,95.44,540.881,538.803,0.0
53550.0,STARLINK-4518,PAYLOAD,2024-08-13 04:00:46,15.08800181,0.0001503,53.2143,118.766,85.0228,275.0936,-0.0012866,-0.00020684,0.0,0 STARLINK-4518,1 53550U 22101Z   24226.16720879 -.00020684  00000-0 -12866-2 0  9997,2 53550  53.2143 118.7660 0001503  85.0228 275.0936 15.08800181109724,6918.002,95.44,540.907,538.827,0.0
53550.0,STARLINK-4518,PAYLOAD,2024-08-13 10:22:20,15.08779343,0.0001718,53.2141,117.5749,81.0238,279.0948,-0.0012939,-0.00020787,0.0,0 STARLINK-4518,1 53550U 22101Z   24226.43218125 -.00020787  00000-0 -12939-2 0  9998,2 53550  53.2141 117.5749 0001718  81.0238 279.0948 15.08779343110423,6918.066,95.441,541.119,538.742,0.0
53550.0,STARLINK-4518,PAYLOAD,2024-08-13 16:43:54,15.08762629,0.0001654,53.2143,116.385,90.7696,269.3486,-0.00089986,-0.0001455,0.0,0 STARLINK-4518,1 53550U 22101Z   24226.69715747 -.00014550  00000-0 -89986-3 0  9996,2 53550  53.2143 116.3850 0001654  90.7696 269.3486 15.08762629109807,6918.117,95.442,541.126,538.838,0.0
53550.0,STARLINK-4518,PAYLOAD,2024-08-13 23:05:26,15.08821851,0.0001973,53.2139,115.198,87.0347,273.087,0.0016225,0.00025616,0.0,0 STARLINK-4518,1 53550U 22101Z   24226.96211556  .00025616  00000-0  16225-2 0  9993,2 53550  53.2139 115.1980 0001973  87.0347 273.0870 15.08821851110500,6917.936,95.439,541.166,538.436,0.0
53550.0,STARLINK-4518,PAYLOAD,2024-08-14 10:13:09,15.08829005,0.000136,53.2138,113.116,85.4105,274.7043,0.0013319,0.00020966,0.0,0 STARLINK-4518,1 53550U 22101Z   24227.42580207  .00020966  00000-0  13319-2 0  9991,2 53550  53.2138 113.1160 0001360  85.4105 274.7043 15.08829005109913,6917.914,95.438,540.72,538.838,0.0
53550.0,STARLINK-4518,PAYLOAD,2024-08-14 22:56:13,15.0887127,0.0001288,53.2133,110.7358,92.7181,267.3958,0.0011733,0.0001845,0.0,0 STARLINK-4518,1 53550U 22101Z   24227.95571031  .00018450  00000-0  11733-2 0  9997,2 53550  53.2133 110.7358 0001288  92.7181 267.3958 15.08871270110651,6917.785,95.436,540.541,538.759,0.0
53550.0,STARLINK-4518,PAYLOAD,2024-08-15 22:46:59,15.08874021,0.0001446,53.2162,106.2761,86.7699,273.3458,0.00055177,8.512e-05,0.0,0 STARLINK-4518,1 53550U 22101Z   24228.94929582  .00008512  00000-0  55177-3 0  9994,2 53550  53.2162 106.2761 0001446  86.7699 273.3458 15.08874021110800,6917.776,95.435,540.642,538.641,0.0
53550.0,STARLINK-4518,PAYLOAD,2024-08-16 22:37:46,15.0885003,0.000145,53.2165,101.815,76.6599,283.4555,0.00064937,0.00010065,0.0,0 STARLINK-4518,1 53550U 22101Z   24229.94289575  .00010065  00000-0  64937-3 0  9996,2 53550  53.2165 101.8150 0001450  76.6599 283.4555 15.08850030110295,6917.85,95.437,540.718,538.712,0.0
53550.0,STARLINK-4518,PAYLOAD,2024-08-17 14:31:37,15.0884752,0.0002144,53.216,98.8429,54.0297,306.0893,0.00054081,8.331e-05,0.0,0 STARLINK-4518,1 53550U 22101Z   24230.60529752  .00008331  00000-0  54081-3 0  9997,2 53550  53.2160  98.8429 0002144  54.0297 306.0893 15.08847520110398,6917.857,95.437,541.206,538.239,0.0
53550.0,STARLINK-4518,PAYLOAD,2024-08-18 01:39:19,15.08842062,0.0001307,53.2172,96.7554,115.7875,244.3252,0.00044705,6.834e-05,0.0,0 STARLINK-4518,1 53550U 22101Z   24231.06897588  .00006834  00000-0  44705-3 0  9991,2 53550  53.2172  96.7554 0001307 115.7875 244.3252 15.08842062110461,6917.874,95.437,540.643,538.835,0.0
53550.0,STARLINK-4518,PAYLOAD,2024-08-18 22:19:19,15.08873882,0.0001205,53.2154,92.8938,83.0654,277.0475,0.0014846,0.0002344,0.0,0 STARLINK-4518,1 53550U 22101Z   24231.93008912  .00023440  00000-0  14846-2 0  9996,2 53550  53.2154  92.8938 0001205  83.0654 277.0475 15.08873882111255,6917.777,95.435,540.475,538.808,0.0
53550.0,STARLINK-4518,PAYLOAD,2024-08-18 23:54:42,15.08883,0.0001136,53.2155,92.5967,86.8257,273.2865,0.0019968,0.00031672,0.0,0 STARLINK-4518,1 53550U 22101Z   24231.99632712  .00031672  00000-0  19968-2 0  9999,2 53550  53.2155  92.5967 0001136  86.8257 273.2865 15.08883000110600,6917.749,95.435,540.4,538.828,0.0
53550.0,STARLINK-4518,PAYLOAD,2024-08-19 11:02:23,15.0883257,0.0001421,53.2147,90.5143,99.6494,260.4658,-0.0020895,-0.00033382,0.0,0 STARLINK-4518,1 53550U 22101Z   24232.45999920 -.00033382  00000-0 -20895-2 0  9991,2 53550  53.2147  90.5143 0001421  99.6494 260.4658 15.08832570110678,6917.903,95.438,540.751,538.785,0.0
53550.0,STARLINK-4518,PAYLOAD,2024-08-19 22:10:06,15.08829645,0.0001498,53.2145,88.4321,87.6153,272.5011,-0.0003821,-6.362e-05,0.0,0 STARLINK-4518,1 53550U 22101Z   24232.92368822 -.00006362  00000-0 -38210-3 0  9993,2 53550  53.2145  88.4321 0001498  87.6153 272.5011 15.08829645110747,6917.912,95.438,540.813,538.741,0.0
53550.0,STARLINK-4518,PAYLOAD,2024-08-20 07:42:26,15.0883444,0.0001452,53.2148,86.6484,83.723,276.3927,0.00089023,0.00013906,0.0,0 STARLINK-4518,1 53550U 22101Z   24233.32113443  .00013906  00000-0  89023-3 0  9993,2 53550  53.2148  86.6484 0001452  83.7230 276.3927 15.08834440111460,6917.897,95.438,540.767,538.758,0.0
53550.0,STARLINK-4518,PAYLOAD,2024-08-20 20:25:31,15.0884609,0.0001491,53.2145,84.2694,82.4787,277.6375,0.0013993,0.00022056,0.0,0 STARLINK-4518,1 53550U 22101Z   24233.85105844  .00022056  00000-0  13993-2 0  9995,2 53550  53.2145  84.2694 0001491  82.4787 277.6375 15.08846090110880,6917.862,95.437,540.758,538.695,0.0
53550.0,STARLINK-4518,PAYLOAD,2024-08-20 23:36:17,15.08850538,0.0001489,53.2145,83.6747,81.3591,278.757,0.0013776,0.00021711,0.0,0 STARLINK-4518,1 53550U 22101Z   24233.98353782  .00021711  00000-0  13776-2 0  9991,2 53550  53.2145  83.6747 0001489  81.3591 278.7570 15.08850538111567,6917.848,95.437,540.743,538.683,0.0
53550.0,STARLINK-4518,PAYLOAD,2024-08-21 18:40:54,15.08857974,0.0001585,53.2143,80.1049,82.2574,277.8598,0.00076476,0.0001191,0.0,0 STARLINK-4518,1 53550U 22101Z   24234.77841389  .00011910  00000-0  76476-3 0  9991,2 53550  53.2143  80.1049 0001585  82.2574 277.8598 15.08857974111022,6917.825,95.436,540.787,538.594,0.0
53550.0,STARLINK-4518,PAYLOAD,2024-08-21 20:16:17,15.08861728,0.0001429,53.2142,79.805,92.0905,268.0251,0.00086246,0.00013473,0.0,0 STARLINK-4518,1 53550U 22101Z   24234.84465165  .00013473  00000-0  86246-3 0  9995,2 53550  53.2142  79.8050 0001429  92.0905 268.0251 15.08861728111695,6917.814,95.436,540.668,538.69,0.0
